IRIDIUM 136             
1 42962U 17061H   23336.61132442  .00000604  00000+0  20873-3 0  9990
2 42962  86.3986  52.8878 0001975 104.5707 255.5707 14.34219240321882
